NORAD_CAT_ID,OBJECT_NAME,OBJECT_TYPE,EPOCH,MEAN_MOTION,ECCENTRICITY,INCLINATION,RA_OF_ASC_NODE,ARG_OF_PERICENTER,MEAN_ANOMALY,BSTAR,MEAN_MOTION_DOT,MEAN_MOTION_DDOT,TLE_LINE0,TLE_LINE1,TLE_LINE2,SEMIMAJOR_AXIS,PERIOD,APOGEE,PERIGEE,DECAYED
52842.0,STARLINK-4046,PAYLOAD,2023-10-03 09:35:09,15.10468492,0.0001395,53.2166,61.7556,93.3379,266.7774,-1.5925e-05,-5.58e-06,0.0,0 STARLINK-4046,1 52842U 22062N   23276.39940979 -.00000558  00000-0 -15925-4 0  9999,2 52842  53.2166  61.7556 0001395  93.3379 266.7774 15.10468492 72174,6912.907,95.335,535.737,533.808,0.0
52842.0,STARLINK-4046,PAYLOAD,2023-10-03 14:20:59,15.10480035,0.0001373,53.2165,60.8636,88.3088,271.8062,0.000294,4.606e-05,0.0,0 STARLINK-4046,1 52842U 22062N   23276.59791190  .00004606  00000-0  29400-3 0  9998,2 52842  53.2165  60.8636 0001373  88.3088 271.8062 15.10480035 71712,6912.872,95.334,535.686,533.788,0.0
52842.0,STARLINK-4046,PAYLOAD,2023-10-03 17:31:33,15.10490881,0.0001682,53.2161,60.2682,88.6579,271.4607,0.00084396,0.0001379,0.0,0 STARLINK-4046,1 52842U 22062N   23276.73024823  .00013790  00000-0  84396-3 0  9995,2 52842  53.2161  60.2682 0001682  88.6579 271.4607 15.10490881 72222,6912.839,95.333,535.867,533.541,0.0
52842.0,STARLINK-4046,PAYLOAD,2023-10-04 09:24:22,15.10491262,0.0001479,53.2171,57.2897,88.1462,271.97,0.0011373,0.00018698,0.0,0 STARLINK-4046,1 52842U 22062N   23277.39192839  .00018698  00000-0  11373-2 0  9997,2 52842  53.2171  57.2897 0001479  88.1462 271.9700 15.10491262 72321,6912.838,95.333,535.725,533.68,0.0
52842.0,STARLINK-4046,PAYLOAD,2023-10-04 14:10:13,15.10504364,0.0001434,53.2167,56.3971,84.6735,275.4422,0.0019555,0.00032436,0.0,0 STARLINK-4046,1 52842U 22062N   23277.59043012  .00032436  00000-0  19555-2 0  9993,2 52842  53.2167  56.3971 0001434  84.6735 275.4422 15.10504364 71860,6912.798,95.332,535.654,533.671,0.0
52842.0,STARLINK-4046,PAYLOAD,2023-10-04 15:45:30,15.10505904,0.0001658,53.2167,56.099,80.7502,279.3678,0.0018795,0.0003116,0.0,0 STARLINK-4046,1 52842U 22062N   23277.65659757  .00031160  00000-0  18795-2 0  9997,2 52842  53.2167  56.0990 0001658  80.7502 279.3678 15.10505904 71873,6912.793,95.332,535.804,533.512,0.0
52842.0,STARLINK-4046,PAYLOAD,2023-10-05 02:52:35,15.10275253,0.0002441,53.2171,54.0146,81.9835,278.1434,-0.0015699,-0.0002619,0.0,0 STARLINK-4046,1 52842U 22062N   23278.11986054 -.00026190  00000-0 -15699-2 0  9991,2 52842  53.2171  54.0146 0002441  81.9835 278.1434 15.10275253 72433,6913.497,95.347,537.049,533.674,0.0
52842.0,STARLINK-4046,PAYLOAD,2023-10-05 12:24:29,15.10051154,0.0006139,53.2162,52.2288,89.6533,270.5163,-0.00045836,-7.831e-05,0.0,0 STARLINK-4046,1 52842U 22062N   23278.51700402 -.00007831  00000-0 -45836-3 0  9994,2 52842  53.2162  52.2288 0006139  89.6533 270.5163 15.10051154 72008,6914.181,95.361,540.29,531.801,0.0
52842.0,STARLINK-4046,PAYLOAD,2023-10-05 22:00:00,15.09234898,0.0001338,53.217,50.4355,80.1621,292.8035,-0.028963,-0.00438677,0.0,0 STARLINK-4046,1 52842U 22062N   23278.91667824 -.00438677  00000-0 -28963-1 0  9994,2 52842  53.2170  50.4355 0001338  80.1621 292.8035 15.09234898 72553,6916.674,95.413,539.464,537.613,0.0
52842.0,STARLINK-4046,PAYLOAD,2023-10-06 06:00:00,15.0882723,0.0001392,53.2173,48.9369,92.3937,292.4704,0.0010254,0.00016063,0.0,0 STARLINK-4046,1 52842U 22062N   23279.25001157  .00016063  00000-0  10254-2 0  9997,2 52842  53.2173  48.9369 0001392  92.3937 292.4704 15.08827230 72600,6917.919,95.438,540.747,538.821,0.0
52842.0,STARLINK-4046,PAYLOAD,2023-10-06 14:00:01,15.08848318,0.0001393,53.2174,47.4419,85.1742,311.3387,-0.0017944,-0.00028739,0.0,0 STARLINK-4046,1 52842U 22062N   23279.58335648 -.00028739  00000-0 -17944-2 0  9996,2 52842  53.2174  47.4419 0001393  85.1742 311.3387 15.08848318  5813,6917.855,95.437,540.684,538.756,0.0
52842.0,STARLINK-4046,PAYLOAD,2023-10-06 22:00:01,15.08841727,0.0001342,53.2172,45.9457,80.3887,327.7157,-0.00036877,-6.152e-05,0.0,0 STARLINK-4046,1 52842U 22062N   23279.91668981 -.00006152  00000-0 -36877-3 0  9994,2 52842  53.2172  45.9457 0001342  80.3887 327.7157 15.08841727  5865,6917.875,95.437,540.668,538.812,0.0
52842.0,STARLINK-4046,PAYLOAD,2023-10-07 06:00:00,15.08814424,0.0001382,53.2174,44.4478,99.007,320.6295,0.0049354,0.00079086,0.0,0 STARLINK-4046,1 52842U 22062N   23280.25001157  .00079086  00000-0  49354-2 0  9996,2 52842  53.2174  44.4478 0001382  99.0070 320.6295 15.08814424 72750,6917.959,95.439,540.78,538.868,0.0
52842.0,STARLINK-4046,PAYLOAD,2023-10-07 14:00:01,15.08915527,0.0001489,53.2175,42.953,94.8526,336.3793,-0.0094952,-0.0014861,0.0,0 STARLINK-4046,1 52842U 22062N   23280.58334491 -.00148610  00000-0 -94952-2 0  9998,2 52842  53.2175  42.9530 0001489  94.8526 336.3793 15.08915527  5793,6917.65,95.433,540.545,538.485,0.0
52842.0,STARLINK-4046,PAYLOAD,2023-10-07 22:00:00,15.088015,0.0001497,53.2172,41.4565,97.4599,345.3977,0.0013196,0.00020754,0.0,0 STARLINK-4046,1 52842U 22062N   23280.91667824  .00020754  00000-0  13196-2 0  9991,2 52842  53.2172  41.4565 0001497  97.4599 345.3977 15.08801500 72850,6917.998,95.44,540.899,538.827,0.0
52842.0,STARLINK-4046,PAYLOAD,2023-10-08 14:00:01,15.08889643,0.000153,53.2173,38.4641,94.1009,11.8927,-0.0065386,-0.00103005,0.0,0 STARLINK-4046,1 52842U 22062N   23281.58334491 -.00103005  00000-0 -65386-2 0  9997,2 52842  53.2173  38.4641 0001530  94.1009  11.8927 15.08889643  5760,6917.729,95.434,540.652,538.535,0.0
52842.0,STARLINK-4046,PAYLOAD,2023-10-08 22:00:00,15.08815336,0.0001461,53.2169,36.9674,84.8516,32.7623,0.00091266,0.00014257,0.0,0 STARLINK-4046,1 52842U 22062N   23281.91667824  .00014257  00000-0  91266-3 0  9998,2 52842  53.2169  36.9674 0001461  84.8516  32.7623 15.08815336  5815,6917.956,95.439,540.831,538.81,0.0
52842.0,STARLINK-4046,PAYLOAD,2023-10-09 00:39:39,15.0884251,0.0002145,53.2176,36.4669,86.6202,273.5035,0.00084946,0.00013258,0.0,0 STARLINK-4046,1 52842U 22062N   23282.02754386  .00013258  00000-0  84946-3 0  9998,2 52842  53.2176  36.4669 0002145  86.6202 273.5035 15.08842510 73028,6917.873,95.437,541.222,538.254,0.0
52842.0,STARLINK-4046,PAYLOAD,2023-10-09 13:22:44,15.08838627,0.0002102,53.2189,34.0909,92.261,267.8623,0.00028721,4.286e-05,0.0,0 STARLINK-4046,1 52842U 22062N   23282.55746519  .00004286  00000-0  28721-3 0  9995,2 52842  53.2189  34.0909 0002102  92.2610 267.8623 15.08838627 72619,6917.885,95.438,541.204,538.295,0.0
52842.0,STARLINK-4046,PAYLOAD,2023-10-09 16:33:31,15.08853919,0.0001781,53.2173,33.4949,82.1583,277.9612,0.00094567,0.000148,0.0,0 STARLINK-4046,1 52842U 22062N   23282.68994274  .00014800  00000-0  94567-3 0  9996,2 52842  53.2173  33.4949 0001781  82.1583 277.9612 15.08853919 73126,6917.838,95.437,540.935,538.471,0.0
52842.0,STARLINK-4046,PAYLOAD,2023-10-09 19:44:17,15.08873881,0.0001578,53.2164,32.9,79.5557,280.5613,0.0025319,0.00040275,0.0,0 STARLINK-4046,1 52842U 22062N   23282.82241922  .00040275  00000-0  25319-2 0  9990,2 52842  53.2164  32.9000 0001578  79.5557 280.5613 15.08873881 72651,6917.777,95.435,540.733,538.55,0.0
52842.0,STARLINK-4046,PAYLOAD,2023-10-10 06:51:59,15.08836859,7.32e-05,53.2191,30.8211,53.106,306.9999,6.4033e-05,7.32e-06,0.0,0 STARLINK-4046,1 52842U 22062N   23283.28610177  .00000732  00000-0  64033-4 0  9995,2 52842  53.2191  30.8211 0000732  53.1060 306.9999 15.08836859 73217,6917.89,95.438,540.261,539.249,0.0
52842.0,STARLINK-4046,PAYLOAD,2023-10-10 13:13:31,15.0886915,0.0001601,53.2168,29.6303,77.9408,282.1764,0.0022849,0.00036293,0.0,0 STARLINK-4046,1 52842U 22062N   23283.55105939  .00036293  00000-0  22849-2 0  9998,2 52842  53.2168  29.6303 0001601  77.9408 282.1764 15.08869150 72769,6917.791,95.436,540.764,538.549,0.0
52842.0,STARLINK-4046,PAYLOAD,2023-10-10 14:48:54,15.08876272,0.0001559,53.2168,29.3326,80.4373,279.6796,0.0026056,0.00041466,0.0,0 STARLINK-4046,1 52842U 22062N   23283.61729748  .00041466  00000-0  26056-2 0  9997,2 52842  53.2168  29.3326 0001559  80.4373 279.6796 15.08876272 73268,6917.77,95.435,540.713,538.556,0.0
52842.0,STARLINK-4046,PAYLOAD,2023-10-10 19:35:03,15.08894488,0.0001687,53.2169,28.4404,73.3255,286.7922,0.0028284,0.00045082,0.0,0 STARLINK-4046,1 52842U 22062N   23283.81601191  .00045082  00000-0  28284-2 0  9993,2 52842  53.2169  28.4404 0001687  73.3255 286.7922 15.08894488 72806,6917.714,95.434,540.746,538.412,0.0
52842.0,STARLINK-4046,PAYLOAD,2023-10-11 13:04:18,15.08843626,0.0001312,53.2186,25.1676,88.6721,271.4422,0.0019837,0.00031427,0.0,0 STARLINK-4046,1 52842U 22062N   23284.54466018  .00031427  00000-0  19837-2 0  9993,2 52842  53.2186  25.1676 0001312  88.6721 271.4422 15.08843626 73403,6917.869,95.437,540.642,538.827,0.0
52842.0,STARLINK-4046,PAYLOAD,2023-10-12 12:55:06,15.08859755,0.0001158,53.2172,20.7087,74.2671,285.8449,0.0024503,0.00038945,0.0,0 STARLINK-4046,1 52842U 22062N   23285.53826408  .00038945  00000-0  24503-2 0  9994,2 52842  53.2172  20.7087 0001158  74.2671 285.8449 15.08859755 73068,6917.82,95.436,540.486,538.884,0.0
52842.0,STARLINK-4046,PAYLOAD,2023-10-12 17:41:15,15.08873185,0.0001261,53.2174,19.8164,77.9158,282.1975,0.0026773,0.00042618,0.0,0 STARLINK-4046,1 52842U 22062N   23285.73698146  .00042618  00000-0  26773-2 0  9995,2 52842  53.2174  19.8164 0001261  77.9158 282.1975 15.08873185 73584,6917.779,95.435,540.516,538.772,0.0
52842.0,STARLINK-4046,PAYLOAD,2023-10-13 00:02:47,15.08849752,9.42e-05,53.2188,18.6278,90.6539,269.4562,0.00080835,0.00012604,0.0,0 STARLINK-4046,1 52842U 22062N   23286.00194221  .00012604  00000-0  80835-3 0  9993,2 52842  53.2188  18.6278 0000942  90.6539 269.4562 15.08849752 73620,6917.851,95.437,540.367,539.064,0.0
52842.0,STARLINK-4046,PAYLOAD,2023-10-13 12:45:53,15.08850537,0.0001445,53.2181,16.2496,90.0516,270.0641,0.0016891,0.00026704,0.0,0 STARLINK-4046,1 52842U 22062N   23286.53186608  .00026704  00000-0  16891-2 0  9997,2 52842  53.2181  16.2496 0001445  90.0516 270.0641 15.08850537 73705,6917.848,95.437,540.713,538.714,0.0
